NORAD_CAT_ID,OBJECT_NAME,OBJECT_TYPE,EPOCH,MEAN_MOTION,ECCENTRICITY,INCLINATION,RA_OF_ASC_NODE,ARG_OF_PERICENTER,MEAN_ANOMALY,BSTAR,MEAN_MOTION_DOT,MEAN_MOTION_DDOT,TLE_LINE0,TLE_LINE1,TLE_LINE2,SEMIMAJOR_AXIS,PERIOD,APOGEE,PERIGEE,DECAYED
52313.0,STARLINK-3749,PAYLOAD,2022-05-28 14:00:01,15.73211627,0.0004223,53.2151,192.1712,3.9737,235.6983,0.00023627,0.00032695,0.0,0 STARLINK-3749,1 52313U 22041BE  22148.58334491  .00032695  00000-0  23627-3 0  9995,2 52313  53.2151 192.1712 0004223   3.9737 235.6983 15.73211627  7037,6727.861999999999,91.533,352.5680000000001,346.886,0.0
52313.0,STARLINK-3749,PAYLOAD,2022-05-28 22:00:00,15.73264188,0.0004017,53.2152,190.5194,3.1888,325.4756,-0.00020235,-0.00029018,0.0,0 STARLINK-3749,1 52313U 22041BE  22148.91667824 -.00029018  00000-0 -20235-3 0  9990,2 52313  53.2152 190.5194 0004017   3.1888 325.4756 15.73264188  7085,6727.712,91.529,352.28,346.875,0.0
52313.0,STARLINK-3749,PAYLOAD,2022-05-29 04:00:00,15.73251151,0.0004016,53.2154,189.2822,4.9947,300.4029,-0.00055379,-0.0007784,0.0,0 STARLINK-3749,1 52313U 22041BE  22149.16667824 -.00077840  00000-0 -55379-3 0  9991,2 52313  53.2154 189.2822 0004016   4.9947 300.4029 15.73251151  7121,6727.749,91.53,352.316,346.912,0.0
52313.0,STARLINK-3749,PAYLOAD,2022-05-29 14:00:01,15.73128751,0.0004296,53.2146,187.2222,4.1538,142.3986,0.00010669,0.00014336,0.0,0 STARLINK-3749,1 52313U 22041BE  22149.58334491  .00014336  00000-0  10669-3 0  9990,2 52313  53.2146 187.2222 0004296   4.1538 142.3986 15.73128751  7193,6728.098000000001,91.537,352.85400000000016,347.0730000000001,0.0
52313.0,STARLINK-3749,PAYLOAD,2022-05-29 19:28:44,15.7318715,0.0004286,53.2153,186.0903,10.0077,350.1028,-7.2988e-05,-0.00010855,0.0,0 STARLINK-3749,1 52313U 22041BE  22149.81163186 -.00010855  00000-0 -72988-4 0  9994,2 52313  53.2153 186.0903 0004286  10.0077 350.1028 15.73187150  7236,6727.932,91.534,352.68,346.913,0.0
52313.0,STARLINK-3749,PAYLOAD,2022-05-30 10:43:34,15.73158776,0.0004321,53.2151,182.9465,7.7497,352.3590000000001,-0.00010728,-0.00015635,0.0,0 STARLINK-3749,1 52313U 22041BE  22150.44693264 -.00015635  00000-0 -10728-3 0  9994,2 52313  53.2151 182.9465 0004321   7.7497 352.3590 15.73158776  7332,6728.013000000001,91.536,352.785,346.971,0.0
52313.0,STARLINK-3749,PAYLOAD,2022-05-30 14:00:01,15.73172254,0.0004257,53.2143,182.2742,0.7022,52.3832,0.00055724,0.00078252,0.0,0 STARLINK-3749,1 52313U 22041BE  22150.58334491  .00078252  00000-0  55724-3 0  9990,2 52313  53.2143 182.2742 0004257   0.7022  52.3832 15.73172254  1303,6727.974,91.535,352.70300000000015,346.975,0.0
52313.0,STARLINK-3749,PAYLOAD,2022-05-30 22:00:00,15.73207918,0.0004031,53.2146,180.6225,2.4102,139.608,0.00037876,0.00052907,0.0,0 STARLINK-3749,1 52313U 22041BE  22150.91667824  .00052907  00000-0  37876-3 0  9993,2 52313  53.2146 180.6225 0004031   2.4102 139.6080 15.73207918  7409,6727.873000000001,91.533,352.45,347.026,0.0
52313.0,STARLINK-3749,PAYLOAD,2022-05-31 04:00:00,15.73257081,0.0004095,53.215,179.3856,5.8373,112.8853,-0.00051361,-0.00072305,0.0,0 STARLINK-3749,1 52313U 22041BE  22151.16667824 -.00072305  00000-0 -51361-3 0  9992,2 52313  53.2150 179.3856 0004095   5.8373 112.8853 15.73257081  7447,6727.732,91.53,352.352,346.842,0.0
52313.0,STARLINK-3749,PAYLOAD,2022-05-31 06:00:02,15.73231309,0.0004201,53.2149,178.9738,6.5576,224.4816,-0.00028106,-0.00039957,0.0,0 STARLINK-3749,1 52313U 22041BE  22151.25002315 -.00039957  00000-0 -28106-3 0  9997,2 52313  53.2149 178.9738 0004201   6.5576 224.4816 15.73231309  1304,6727.806,91.531,352.497,346.845,0.0
52313.0,STARLINK-3749,PAYLOAD,2022-05-31 14:00:01,15.73204141,0.0004404,53.2143,177.3252,7.2573,312.6624,0.00046674,0.00065434,0.0,0 STARLINK-3749,1 52313U 22041BE  22151.58334491  .00065434  00000-0  46674-3 0  9993,2 52313  53.2143 177.3252 0004404   7.2573 312.6624 15.73204141  7501,6727.8830000000025,91.533,352.711,346.785,0.0
52313.0,STARLINK-3749,PAYLOAD,2022-05-31 22:00:00,15.73231027,0.0004096,53.2142,175.6735,7.9358,40.9484,0.0003533,0.00049337,0.0,0 STARLINK-3749,1 52313U 22041BE  22151.91667824  .00049337  00000-0  35330-3 0  9990,2 52313  53.2142 175.6735 0004096   7.9358  40.9484 15.73231027  1302,6727.807,91.531,352.427,346.916,0.0
52313.0,STARLINK-3749,PAYLOAD,2022-06-01 06:00:00,15.73255018,0.0004177,53.2144,174.0251,6.5742,131.3044,-0.00023874,-0.00034092,0.0,0 STARLINK-3749,1 52313U 22041BE  22152.25001157 -.00034092  00000-0 -23874-3 0  9993,2 52313  53.2144 174.0251 0004177   6.5742 131.3044 15.73255018  7615,6727.738,91.53,352.413,346.793,0.0
52313.0,STARLINK-3749,PAYLOAD,2022-06-01 20:00:01,15.73221845,0.0004105,53.2155,171.1368,4.7173,198.8473,7.842399999999999e-05,0.0001041,0.0,0 STARLINK-3749,1 52313U 22041BE  22152.83334491  .00010410  00000-0  78424-4 0  9995,2 52313  53.2155 171.1368 0004105   4.7173 198.8473 15.73221845  1308,6727.833000000001,91.532,352.46,346.936,0.0
52313.0,STARLINK-3749,PAYLOAD,2022-06-03 03:09:23,15.73220898,0.0004175,53.2152,164.7132,7.7879999999999985,352.3204,-6.5283000000000015e-06,-1.543e-05,0.0,0 STARLINK-3749,1 52313U 22041BE  22154.13151838 -.00001543  00000-0 -65283-5 0  9991,2 52313  53.2152 164.7132 0004175   7.7880 352.3204 15.73220898  7916,6727.8359999999975,91.532,352.509,346.892,0.0
52313.0,STARLINK-3749,PAYLOAD,2022-06-03 10:46:47,15.7320553,0.0003687,53.2152,163.1414,7.2735,352.8338,-4.097e-05,-6.373e-05,0.0,0 STARLINK-3749,1 52313U 22041BE  22154.44916146 -.00006373  00000-0 -40970-4 0  9997,2 52313  53.2152 163.1414 0003687   7.2735 352.8338 15.73205530  7967,6727.879,91.533,352.225,347.264,0.0
52313.0,STARLINK-3749,PAYLOAD,2022-06-03 12:18:15,15.73222848,0.0004191,53.215,162.8268,5.1864,354.9199,-9.8405e-07,-7.64e-06,0.0,0 STARLINK-3749,1 52313U 22041BE  22154.51268208 -.00000764  00000-0 -98405-6 0  9990,2 52313  53.2150 162.8268 0004191   5.1864 354.9199 15.73222848  7979,6727.83,91.532,352.515,346.875,0.0
52313.0,STARLINK-3749,PAYLOAD,2022-06-04 11:10:27,15.73231044,0.0004492,53.216,158.1121,6.0013,354.1061,-2.1071e-05,-3.588e-05,0.0,0 STARLINK-3749,1 52313U 22041BE  22155.46559268 -.00003588  00000-0 -21071-4 0  9994,2 52313  53.2160 158.1121 0004492   6.0013 354.1061 15.73231044  8122,6727.807,91.531,352.694,346.65,0.0
52313.0,STARLINK-3749,PAYLOAD,2022-06-05 22:00:00,15.73210609,0.0004014,53.2159,150.9302,1.1215,301.9795,0.00051085,0.00071745,0.0,0 STARLINK-3749,1 52313U 22041BE  22156.91667824  .00071745  00000-0  51085-3 0  9998,2 52313  53.2159 150.9302 0004014   1.1215 301.9795 15.73210609  8343,6727.865,91.533,352.43,347.029,0.0
52313.0,STARLINK-3749,PAYLOAD,2022-06-06 06:00:00,15.73274071,0.0004204,53.2162,149.2826,359.5473,32.5296,-0.0010537,-0.00146516,0.0,0 STARLINK-3749,1 52313U 22041BE  22157.25001157 -.00146516  00000-0 -10537-2 0  9994,2 52313  53.2162 149.2826 0004204 359.5473  32.5296 15.73274071  8409,6727.684,91.529,352.37699999999984,346.721,0.0
52313.0,STARLINK-3749,PAYLOAD,2022-06-06 14:00:01,15.73170942,0.0004193,53.2158,147.6327,356.4864,124.5459,-0.00031897,-0.00045119,0.0,0 STARLINK-3749,1 52313U 22041BE  22157.58334491 -.00045119  00000-0 -31897-3 0  9990,2 52313  53.2158 147.6327 0004193 356.4864 124.5459 15.73170942  1306,6727.978,91.535,352.664,347.022,0.0
52313.0,STARLINK-3749,PAYLOAD,2022-06-06 22:00:00,15.73147205,0.0003906,53.2159,145.9819,356.9626,212.9581,0.00052918,0.00074159,0.0,0 STARLINK-3749,1 52313U 22041BE  22157.91667824  .00074159  00000-0  52918-3 0  9997,2 52313  53.2159 145.9819 0003906 356.9626 212.9581 15.73147205  8509,6728.045999999999,91.536,352.539,347.283,0.0
52313.0,STARLINK-3749,PAYLOAD,2022-06-07 14:00:01,15.73257781,0.0004098,53.2156,142.6846,356.7745,30.9538,-0.00059959,-0.0008419,0.0,0 STARLINK-3749,1 52313U 22041BE  22158.58334491 -.00084190  00000-0 -59959-3 0  9992,2 52313  53.2156 142.6846 0004098 356.7745  30.9538 15.73257781  8616,6727.73,91.53,352.352,346.838,0.0
52313.0,STARLINK-3749,PAYLOAD,2022-06-07 22:00:00,15.73177135,0.0003823,53.216,141.0334,357.7978,118.8993,0.00054077,0.00075909,0.0,0 STARLINK-3749,1 52313U 22041BE  22158.91667824  .00075909  00000-0  54077-3 0  9990,2 52313  53.2160 141.0334 0003823 357.7978 118.8993 15.73177135  8660,6727.96,91.535,352.397,347.25300000000016,0.0
52313.0,STARLINK-3749,PAYLOAD,2022-06-08 14:00:01,15.73190646,0.0004159,53.2157,137.7357,3.7199,290.863,4.7678e-05,6.072e-05,0.0,0 STARLINK-3749,1 52313U 22041BE  22159.58334491  .00006072  00000-0  47678-4 0  9990,2 52313  53.2157 137.7357 0004159   3.7199 290.8630 15.73190646  8761,6727.922,91.534,352.585,346.98900000000015,0.0
52313.0,STARLINK-3749,PAYLOAD,2022-06-08 22:00:01,15.73215776,0.0003974,53.2158,136.085,6.5088,17.0462,-0.00028482,-0.00040452,0.0,0 STARLINK-3749,1 52313U 22041BE  22159.91668981 -.00040452  00000-0 -28482-3 0  9994,2 52313  53.2158 136.0850 0003974   6.5088  17.0462 15.73215776  1301,6727.85,91.532,352.389,347.042,0.0
52313.0,STARLINK-3749,PAYLOAD,2022-06-09 06:00:00,15.73154175,0.0004246,53.2154,134.4378,9.1073,103.3057,0.00023054,0.00031804,0.0,0 STARLINK-3749,1 52313U 22041BE  22160.25001157  .00031804  00000-0  23054-3 0  9998,2 52313  53.2154 134.4378 0004246   9.1073 103.3057 15.73154175  8873,6728.026,91.536,352.74800000000016,347.034,0.0
52313.0,STARLINK-3749,PAYLOAD,2022-06-09 14:00:01,15.73204808,0.0004155,53.2153,132.7873,8.8367,192.4602,-7.1691e-05,-0.00010681,0.0,0 STARLINK-3749,1 52313U 22041BE  22160.58334491 -.00010681  00000-0 -71691-4 0  9997,2 52313  53.2153 132.7873 0004155   8.8367 192.4602 15.73204808  1309,6727.880999999999,91.533,352.542,346.951,0.0
52313.0,STARLINK-3749,PAYLOAD,2022-06-09 22:00:00,15.73211102,0.0003961,53.2157,131.1364,9.5332,280.6922,-0.00023757,-0.00033863,0.0,0 STARLINK-3749,1 52313U 22041BE  22160.91667824 -.00033863  00000-0 -23757-3 0  9999,2 52313  53.2157 131.1364 0003961   9.5332 280.6922 15.73211102  1305,6727.864000000001,91.533,352.39300000000014,347.064,0.0
